CCSDS_OMM_VERS = 2.0
CREATION_DATE  = 
ORIGINATOR     = 

OBJECT_NAME    = STARLINK-35293
OBJECT_ID      = 2025-232H
CENTER_NAME    = EARTH
REF_FRAME      = TEME
TIME_SYSTEM    = UTC
MEAN_ELEMENT_THEORY = SGP/SGP4

EPOCH          = 2025-10-27T20:00:01.000224
MEAN_MOTION    = 15.80052063
ECCENTRICITY   = .0000906
INCLINATION    = 53.1549
RA_OF_ASC_NODE = 5.5965
ARG_OF_PERICENTER = 67.4268
MEAN_ANOMALY   = 180.7780

EPHEMERIS_TYPE = 0
CLASSIFICATION_TYPE = U
NORAD_CAT_ID   = 66012
ELEMENT_SET_NO = 999
REV_AT_EPOCH   = 218
BSTAR          = -.94684E-2
MEAN_MOTION_DOT = -.1575953E-1
MEAN_MOTION_DDOT = 0

CCSDS_OMM_VERS = 2.0
CREATION_DATE  = 
ORIGINATOR     = 

OBJECT_NAME    = STARLINK-35307
OBJECT_ID      = 2025-232J
CENTER_NAME    = EARTH
REF_FRAME      = TEME
TIME_SYSTEM    = UTC
MEAN_ELEMENT_THEORY = SGP/SGP4

EPOCH          = 2025-10-27T20:00:01.000224
MEAN_MOTION    = 15.80021684
ECCENTRICITY   = .0001117
INCLINATION    = 53.1552
RA_OF_ASC_NODE = 5.5920
ARG_OF_PERICENTER = 70.5375
MEAN_ANOMALY   = 179.8922

EPHEMERIS_TYPE = 0
CLASSIFICATION_TYPE = U
NORAD_CAT_ID   = 66013
ELEMENT_SET_NO = 999
REV_AT_EPOCH   = 211
BSTAR          = -.95188E-2
MEAN_MOTION_DOT = -.1581486E-1
MEAN_MOTION_DDOT = 0

CCSDS_OMM_VERS = 2.0
CREATION_DATE  = 
ORIGINATOR     = 

OBJECT_NAME    = STARLINK-35395
OBJECT_ID      = 2025-232K
CENTER_NAME    = EARTH
REF_FRAME      = TEME
TIME_SYSTEM    = UTC
MEAN_ELEMENT_THEORY = SGP/SGP4

EPOCH          = 2025-10-27T20:00:01.000224
MEAN_MOTION    = 15.80019332
ECCENTRICITY   = .000081
INCLINATION    = 53.1550
RA_OF_ASC_NODE = 5.5874
ARG_OF_PERICENTER = 61.4534
MEAN_ANOMALY   = 190.9918

EPHEMERIS_TYPE = 0
CLASSIFICATION_TYPE = U
NORAD_CAT_ID   = 66014
ELEMENT_SET_NO = 999
REV_AT_EPOCH   = 217
BSTAR          = -.95382E-2
MEAN_MOTION_DOT = -.1583911E-1
MEAN_MOTION_DDOT = 0

CCSDS_OMM_VERS = 2.0
CREATION_DATE  = 
ORIGINATOR     = 

OBJECT_NAME    = STARLINK-34622
OBJECT_ID      = 2025-232L
CENTER_NAME    = EARTH
REF_FRAME      = TEME
TIME_SYSTEM    = UTC
MEAN_ELEMENT_THEORY = SGP/SGP4

EPOCH          = 2025-10-27T20:00:01.000224
MEAN_MOTION    = 15.79874032
ECCENTRICITY   = .0000905
INCLINATION    = 53.1550
RA_OF_ASC_NODE = 5.5687
ARG_OF_PERICENTER = 68.8869
MEAN_ANOMALY   = 192.6853

EPHEMERIS_TYPE = 0
CLASSIFICATION_TYPE = U
NORAD_CAT_ID   = 66015
ELEMENT_SET_NO = 999
REV_AT_EPOCH   = 207
BSTAR          = -.98457E-2
MEAN_MOTION_DOT = -.1618824E-1
MEAN_MOTION_DDOT = 0

CCSDS_OMM_VERS = 2.0
CREATION_DATE  = 
ORIGINATOR     = 

OBJECT_NAME    = STARLINK-35243
OBJECT_ID      = 2025-232M
CENTER_NAME    = EARTH
REF_FRAME      = TEME
TIME_SYSTEM    = UTC
MEAN_ELEMENT_THEORY = SGP/SGP4

EPOCH          = 2025-10-27T20:00:01.000224
MEAN_MOTION    = 15.79919960
ECCENTRICITY   = .0001039
INCLINATION    = 53.1549
RA_OF_ASC_NODE = 5.5733
ARG_OF_PERICENTER = 61.1203
MEAN_ANOMALY   = 198.1177

EPHEMERIS_TYPE = 0
CLASSIFICATION_TYPE = U
NORAD_CAT_ID   = 66016
ELEMENT_SET_NO = 999
REV_AT_EPOCH   = 218
BSTAR          = -.97835E-2
MEAN_MOTION_DOT = -.1613012E-1
MEAN_MOTION_DDOT = 0

CCSDS_OMM_VERS = 2.0
CREATION_DATE  = 
ORIGINATOR     = 

OBJECT_NAME    = STARLINK-35398
OBJECT_ID      = 2025-232N
CENTER_NAME    = EARTH
REF_FRAME      = TEME
TIME_SYSTEM    = UTC
MEAN_ELEMENT_THEORY = SGP/SGP4

EPOCH          = 2025-10-27T20:00:01.000224
MEAN_MOTION    = 15.79807193
ECCENTRICITY   = .000073
INCLINATION    = 53.1550
RA_OF_ASC_NODE = 5.5590
ARG_OF_PERICENTER = 68.2576
MEAN_ANOMALY   = 197.8746

EPHEMERIS_TYPE = 0
CLASSIFICATION_TYPE = U
NORAD_CAT_ID   = 66017
ELEMENT_SET_NO = 999
REV_AT_EPOCH   = 210
BSTAR          = -.10066E-1
MEAN_MOTION_DOT = -.1645565E-1
MEAN_MOTION_DDOT = 0

CCSDS_OMM_VERS = 2.0
CREATION_DATE  = 
ORIGINATOR     = 

OBJECT_NAME    = STARLINK-35376
OBJECT_ID      = 2025-232P
CENTER_NAME    = EARTH
REF_FRAME      = TEME
TIME_SYSTEM    = UTC
MEAN_ELEMENT_THEORY = SGP/SGP4

EPOCH          = 2025-10-27T20:00:01.000224
MEAN_MOTION    = 15.79815400
ECCENTRICITY   = .0001119
INCLINATION    = 53.1550
RA_OF_ASC_NODE = 5.5634
ARG_OF_PERICENTER = 67.5718
MEAN_ANOMALY   = 196.4587

EPHEMERIS_TYPE = 0
CLASSIFICATION_TYPE = U
NORAD_CAT_ID   = 66018
ELEMENT_SET_NO = 999
REV_AT_EPOCH   = 218
BSTAR          = -.99731E-2
MEAN_MOTION_DOT = -.1633303E-1
MEAN_MOTION_DDOT = 0

CCSDS_OMM_VERS = 2.0
CREATION_DATE  = 
ORIGINATOR     = 

OBJECT_NAME    = STARLINK-35382
OBJECT_ID      = 2025-232Q
CENTER_NAME    = EARTH
REF_FRAME      = TEME
TIME_SYSTEM    = UTC
MEAN_ELEMENT_THEORY = SGP/SGP4

EPOCH          = 2025-10-27T20:00:01.000224
MEAN_MOTION    = 15.79958524
ECCENTRICITY   = .0001092
INCLINATION    = 53.1553
RA_OF_ASC_NODE = 5.5779
ARG_OF_PERICENTER = 68.7100
MEAN_ANOMALY   = 188.2079

EPHEMERIS_TYPE = 0
CLASSIFICATION_TYPE = U
NORAD_CAT_ID   = 66019
ELEMENT_SET_NO = 999
REV_AT_EPOCH   = 218
BSTAR          = -.96773E-2
MEAN_MOTION_DOT = -.1600297E-1
MEAN_MOTION_DDOT = 0

CCSDS_OMM_VERS = 2.0
CREATION_DATE  = 
ORIGINATOR     = 

OBJECT_NAME    = STARLINK-35430
OBJECT_ID      = 2025-232R
CENTER_NAME    = EARTH
REF_FRAME      = TEME
TIME_SYSTEM    = UTC
MEAN_ELEMENT_THEORY = SGP/SGP4

EPOCH          = 2025-10-27T20:00:01.000224
MEAN_MOTION    = 15.79779659
ECCENTRICITY   = .0000675
INCLINATION    = 53.1546
RA_OF_ASC_NODE = 5.5498
ARG_OF_PERICENTER = 68.5343
MEAN_ANOMALY   = 201.8076

EPHEMERIS_TYPE = 0
CLASSIFICATION_TYPE = U
NORAD_CAT_ID   = 66020
ELEMENT_SET_NO = 999
REV_AT_EPOCH   = 217
BSTAR          = -.10142E-1
MEAN_MOTION_DOT = -.1654524E-1
MEAN_MOTION_DDOT = 0

CCSDS_OMM_VERS = 2.0
CREATION_DATE  = 
ORIGINATOR     = 

OBJECT_NAME    = STARLINK-35432
OBJECT_ID      = 2025-232S
CENTER_NAME    = EARTH
REF_FRAME      = TEME
TIME_SYSTEM    = UTC
MEAN_ELEMENT_THEORY = SGP/SGP4

EPOCH          = 2025-10-27T20:00:01.000224
MEAN_MOTION    = 15.79823203
ECCENTRICITY   = .0000752
INCLINATION    = 53.1544
RA_OF_ASC_NODE = 5.5542
ARG_OF_PERICENTER = 64.1408
MEAN_ANOMALY   = 203.8715

EPHEMERIS_TYPE = 0
CLASSIFICATION_TYPE = U
NORAD_CAT_ID   = 66021
ELEMENT_SET_NO = 999
REV_AT_EPOCH   = 210
BSTAR          = -.10065E-1
MEAN_MOTION_DOT = -.1646527E-1
MEAN_MOTION_DDOT = 0

CCSDS_OMM_VERS = 2.0
CREATION_DATE  = 
ORIGINATOR     = 

OBJECT_NAME    = STARLINK-35340
OBJECT_ID      = 2025-232T
CENTER_NAME    = EARTH
REF_FRAME      = TEME
TIME_SYSTEM    = UTC
MEAN_ELEMENT_THEORY = SGP/SGP4

EPOCH          = 2025-10-27T20:00:01.000224
MEAN_MOTION    = 15.79780549
ECCENTRICITY   = .0000958
INCLINATION    = 53.1550
RA_OF_ASC_NODE = 5.5457
ARG_OF_PERICENTER = 61.2128
MEAN_ANOMALY   = 211.1390

EPHEMERIS_TYPE = 0
CLASSIFICATION_TYPE = U
NORAD_CAT_ID   = 66022
ELEMENT_SET_NO = 999
REV_AT_EPOCH   = 217
BSTAR          = -.10199E-1
MEAN_MOTION_DOT = -.1696886E-1
MEAN_MOTION_DDOT = 0

CCSDS_OMM_VERS = 2.0
CREATION_DATE  = 
ORIGINATOR     = 

OBJECT_NAME    = STARLINK-35394
OBJECT_ID      = 2025-232U
CENTER_NAME    = EARTH
REF_FRAME      = TEME
TIME_SYSTEM    = UTC
MEAN_ELEMENT_THEORY = SGP/SGP4

EPOCH          = 2025-10-27T20:00:01.000224
MEAN_MOTION    = 15.79770923
ECCENTRICITY   = .0001028
INCLINATION    = 53.1547
RA_OF_ASC_NODE = 5.5411
ARG_OF_PERICENTER = 67.7983
MEAN_ANOMALY   = 206.6923

EPHEMERIS_TYPE = 0
CLASSIFICATION_TYPE = U
NORAD_CAT_ID   = 66023
ELEMENT_SET_NO = 999
REV_AT_EPOCH   = 217
BSTAR          = -.10357E-1
MEAN_MOTION_DOT = -.1719528E-1
MEAN_MOTION_DDOT = 0

